CCSDS_OMM_VERS = 2.0
CREATION_DATE  = 
ORIGINATOR     = 

OBJECT_NAME    = COSMOS 2058
OBJECT_ID      = 1990-010A
CENTER_NAME    = EARTH
REF_FRAME      = TEME
TIME_SYSTEM    = UTC
MEAN_ELEMENT_THEORY = SGP/SGP4

EPOCH          = 2026-03-24T08:18:08.454816
MEAN_MOTION    = 15.11447920
ECCENTRICITY   = .0007503
INCLINATION    = 82.4682
RA_OF_ASC_NODE = 32.9852
ARG_OF_PERICENTER = 288.6822
MEAN_ANOMALY   = 71.3594

EPHEMERIS_TYPE = 0
CLASSIFICATION_TYPE = U
NORAD_CAT_ID   = 20465
ELEMENT_SET_NO = 999
REV_AT_EPOCH   = 94445
BSTAR          = .25924E-3
MEAN_MOTION_DOT = .4412E-4
MEAN_MOTION_DDOT = 0

CCSDS_OMM_VERS = 2.0
CREATION_DATE  = 
ORIGINATOR     = 

OBJECT_NAME    = SL-14 R/B
OBJECT_ID      = 1990-010B
CENTER_NAME    = EARTH
REF_FRAME      = TEME
TIME_SYSTEM    = UTC
MEAN_ELEMENT_THEORY = SGP/SGP4

EPOCH          = 2026-03-24T10:59:00.585024
MEAN_MOTION    = 14.83581654
ECCENTRICITY   = .0018415
INCLINATION    = 82.4990
RA_OF_ASC_NODE = 253.5124
ARG_OF_PERICENTER = 249.7892
MEAN_ANOMALY   = 110.1343

EPHEMERIS_TYPE = 0
CLASSIFICATION_TYPE = U
NORAD_CAT_ID   = 20466
ELEMENT_SET_NO = 999
REV_AT_EPOCH   = 93067
BSTAR          = .5398E-4
MEAN_MOTION_DOT = .469E-5
MEAN_MOTION_DDOT = 0

CCSDS_OMM_VERS = 2.0
CREATION_DATE  = 
ORIGINATOR     = 

OBJECT_NAME    = SL-14 R/B
OBJECT_ID      = 1990-018B
CENTER_NAME    = EARTH
REF_FRAME      = TEME
TIME_SYSTEM    = UTC
MEAN_ELEMENT_THEORY = SGP/SGP4

EPOCH          = 2026-03-24T10:07:53.134464
MEAN_MOTION    = 14.82159214
ECCENTRICITY   = .0017238
INCLINATION    = 82.5230
RA_OF_ASC_NODE = 209.3214
ARG_OF_PERICENTER = 47.2711
MEAN_ANOMALY   = 312.9950

EPHEMERIS_TYPE = 0
CLASSIFICATION_TYPE = U
NORAD_CAT_ID   = 20511
ELEMENT_SET_NO = 999
REV_AT_EPOCH   = 92476
BSTAR          = .57656E-4
MEAN_MOTION_DOT = .484E-5
MEAN_MOTION_DDOT = 0

CCSDS_OMM_VERS = 2.0
CREATION_DATE  = 
ORIGINATOR     = 

OBJECT_NAME    = HST
OBJECT_ID      = 1990-037B
CENTER_NAME    = EARTH
REF_FRAME      = TEME
TIME_SYSTEM    = UTC
MEAN_ELEMENT_THEORY = SGP/SGP4

EPOCH          = 2026-03-24T07:07:10.916832
MEAN_MOTION    = 15.29703539
ECCENTRICITY   = .0001498
INCLINATION    = 28.4720
RA_OF_ASC_NODE = 300.3407
ARG_OF_PERICENTER = 295.0290
MEAN_ANOMALY   = 65.0150

EPHEMERIS_TYPE = 0
CLASSIFICATION_TYPE = U
NORAD_CAT_ID   = 20580
ELEMENT_SET_NO = 999
REV_AT_EPOCH   = 77555
BSTAR          = .2254E-3
MEAN_MOTION_DOT = .6906E-4
MEAN_MOTION_DDOT = 0

CCSDS_OMM_VERS = 2.0
CREATION_DATE  = 
ORIGINATOR     = 

OBJECT_NAME    = SL-16 R/B
OBJECT_ID      = 1990-046B
CENTER_NAME    = EARTH
REF_FRAME      = TEME
TIME_SYSTEM    = UTC
MEAN_ELEMENT_THEORY = SGP/SGP4

EPOCH          = 2026-03-24T11:19:22.851264
MEAN_MOTION    = 14.15013321
ECCENTRICITY   = .0016273
INCLINATION    = 70.9953
RA_OF_ASC_NODE = 266.8664
ARG_OF_PERICENTER = 280.2557
MEAN_ANOMALY   = 79.6730

EPHEMERIS_TYPE = 0
CLASSIFICATION_TYPE = U
NORAD_CAT_ID   = 20625
ELEMENT_SET_NO = 999
REV_AT_EPOCH   = 85048
BSTAR          = .11192E-3
MEAN_MOTION_DOT = .169E-5
MEAN_MOTION_DDOT = 0

CCSDS_OMM_VERS = 2.0
CREATION_DATE  = 
ORIGINATOR     = 

OBJECT_NAME    = COSMOS 2084
OBJECT_ID      = 1990-055A
CENTER_NAME    = EARTH
REF_FRAME      = TEME
TIME_SYSTEM    = UTC
MEAN_ELEMENT_THEORY = SGP/SGP4

EPOCH          = 2026-03-24T12:46:03.330336
MEAN_MOTION    = 15.05728508
ECCENTRICITY   = .0014744
INCLINATION    = 62.7895
RA_OF_ASC_NODE = 284.9523
ARG_OF_PERICENTER = 194.3379
MEAN_ANOMALY   = 165.7305

EPHEMERIS_TYPE = 0
CLASSIFICATION_TYPE = U
NORAD_CAT_ID   = 20663
ELEMENT_SET_NO = 999
REV_AT_EPOCH   = 93855
BSTAR          = .17544E-3
MEAN_MOTION_DOT = .2354E-4
MEAN_MOTION_DDOT = 0

CCSDS_OMM_VERS = 2.0
CREATION_DATE  = 
ORIGINATOR     = 

OBJECT_NAME    = SL-6 R/B(2)
OBJECT_ID      = 1990-055D
CENTER_NAME    = EARTH
REF_FRAME      = TEME
TIME_SYSTEM    = UTC
MEAN_ELEMENT_THEORY = SGP/SGP4

EPOCH          = 2026-03-24T09:38:49.540992
MEAN_MOTION    = 15.03663853
ECCENTRICITY   = .0027206
INCLINATION    = 62.7830
RA_OF_ASC_NODE = 203.8156
ARG_OF_PERICENTER = 350.4726
MEAN_ANOMALY   = 9.5853

EPHEMERIS_TYPE = 0
CLASSIFICATION_TYPE = U
NORAD_CAT_ID   = 20666
ELEMENT_SET_NO = 999
REV_AT_EPOCH   = 94040
BSTAR          = .1712E-3
MEAN_MOTION_DOT = .2171E-4
MEAN_MOTION_DDOT = 0

CCSDS_OMM_VERS = 2.0
CREATION_DATE  = 
ORIGINATOR     = 

OBJECT_NAME    = SL-8 R/B
OBJECT_ID      = 1990-078B
CENTER_NAME    = EARTH
REF_FRAME      = TEME
TIME_SYSTEM    = UTC
MEAN_ELEMENT_THEORY = SGP/SGP4

EPOCH          = 2026-03-24T10:09:54.014976
MEAN_MOTION    = 14.89517874
ECCENTRICITY   = .0359209
INCLINATION    = 82.9020
RA_OF_ASC_NODE = 238.0523
ARG_OF_PERICENTER = 324.3502
MEAN_ANOMALY   = 33.4190

EPHEMERIS_TYPE = 0
CLASSIFICATION_TYPE = U
NORAD_CAT_ID   = 20775
ELEMENT_SET_NO = 999
REV_AT_EPOCH   = 81149
BSTAR          = .37492E-3
MEAN_MOTION_DOT = .12672E-3
MEAN_MOTION_DDOT = 0

CCSDS_OMM_VERS = 2.0
CREATION_DATE  = 
ORIGINATOR     = 

OBJECT_NAME    = SL-8 R/B
OBJECT_ID      = 1991-006B
CENTER_NAME    = EARTH
REF_FRAME      = TEME
TIME_SYSTEM    = UTC
MEAN_ELEMENT_THEORY = SGP/SGP4

EPOCH          = 2026-03-24T12:06:41.486112
MEAN_MOTION    = 13.77496469
ECCENTRICITY   = .0022133
INCLINATION    = 82.9453
RA_OF_ASC_NODE = 159.0320
ARG_OF_PERICENTER = 357.4426
MEAN_ANOMALY   = 13.2077

EPHEMERIS_TYPE = 0
CLASSIFICATION_TYPE = U
NORAD_CAT_ID   = 21088
ELEMENT_SET_NO = 999
REV_AT_EPOCH   = 76611
BSTAR          = .81736E-4
MEAN_MOTION_DOT = .97E-6
MEAN_MOTION_DDOT = 0

CCSDS_OMM_VERS = 2.0
CREATION_DATE  = 
ORIGINATOR     = 

OBJECT_NAME    = OKEAN-3
OBJECT_ID      = 1991-039A
CENTER_NAME    = EARTH
REF_FRAME      = TEME
TIME_SYSTEM    = UTC
MEAN_ELEMENT_THEORY = SGP/SGP4

EPOCH          = 2026-03-24T08:58:37.411104
MEAN_MOTION    = 15.04893264
ECCENTRICITY   = .0012409
INCLINATION    = 82.5168
RA_OF_ASC_NODE = 322.6172
ARG_OF_PERICENTER = 282.1923
MEAN_ANOMALY   = 77.7913

EPHEMERIS_TYPE = 0
CLASSIFICATION_TYPE = U
NORAD_CAT_ID   = 21397
ELEMENT_SET_NO = 999
REV_AT_EPOCH   = 86724
BSTAR          = .1474E-3
MEAN_MOTION_DOT = .2115E-4
MEAN_MOTION_DDOT = 0

CCSDS_OMM_VERS = 2.0
CREATION_DATE  = 
ORIGINATOR     = 

OBJECT_NAME    = COSMOS 2151
OBJECT_ID      = 1991-042A
CENTER_NAME    = EARTH
REF_FRAME      = TEME
TIME_SYSTEM    = UTC
MEAN_ELEMENT_THEORY = SGP/SGP4

EPOCH          = 2026-03-24T11:47:26.047680
MEAN_MOTION    = 15.00163254
ECCENTRICITY   = .0012929
INCLINATION    = 82.4943
RA_OF_ASC_NODE = 69.3934
ARG_OF_PERICENTER = 17.8843
MEAN_ANOMALY   = 342.2833

EPHEMERIS_TYPE = 0
CLASSIFICATION_TYPE = U
NORAD_CAT_ID   = 21422
ELEMENT_SET_NO = 999
REV_AT_EPOCH   = 86541
BSTAR          = .18441E-3
MEAN_MOTION_DOT = .2332E-4
MEAN_MOTION_DDOT = 0

CCSDS_OMM_VERS = 2.0
CREATION_DATE  = 
ORIGINATOR     = 

OBJECT_NAME    = SL-14 R/B
OBJECT_ID      = 1991-042B
CENTER_NAME    = EARTH
REF_FRAME      = TEME
TIME_SYSTEM    = UTC
MEAN_ELEMENT_THEORY = SGP/SGP4

EPOCH          = 2026-03-24T09:51:31.063680
MEAN_MOTION    = 14.81844037
ECCENTRICITY   = .0016832
INCLINATION    = 82.4949
RA_OF_ASC_NODE = 206.3800
ARG_OF_PERICENTER = 187.8775
MEAN_ANOMALY   = 172.2177

EPHEMERIS_TYPE = 0
CLASSIFICATION_TYPE = U
NORAD_CAT_ID   = 21423
ELEMENT_SET_NO = 999
REV_AT_EPOCH   = 85525
BSTAR          = .60654E-4
MEAN_MOTION_DOT = .504E-5
MEAN_MOTION_DDOT = 0

