COSMOS 2058             
1 20465U 90010A   26083.34593119  .00004412  00000+0  25924-3 0  9996
2 20465  82.4682  32.9852 0007503 288.6822  71.3594 15.11447920944458
SL-14 R/B               
1 20466U 90010B   26083.45764566  .00000469  00000+0  53980-4 0  9997
2 20466  82.4990 253.5124 0018415 249.7892 110.1343 14.83581654930677
SL-14 R/B               
1 20511U 90018B   26083.42214276  .00000484  00000+0  57656-4 0  9992
2 20511  82.5230 209.3214 0017238  47.2711 312.9950 14.82159214924769
HST                     
1 20580U 90037B   26083.29665413  .00006906  00000+0  22540-3 0  9995
2 20580  28.4720 300.3407 0001498 295.0290  65.0150 15.29703539775556
SL-16 R/B               
1 20625U 90046B   26083.47179226  .00000169  00000+0  11192-3 0  9993
2 20625  70.9953 266.8664 0016273 280.2557  79.6730 14.15013321850484
COSMOS 2084             
1 20663U 90055A   26083.53198299  .00002354  00000+0  17544-3 0  9998
2 20663  62.7895 284.9523 0014744 194.3379 165.7305 15.05728508938553
SL-6 R/B(2)             
1 20666U 90055D   26083.40196228  .00002171  00000+0  17120-3 0  9994
2 20666  62.7830 203.8156 0027206 350.4726   9.5853 15.03663853940404
SL-8 R/B                
1 20775U 90078B   26083.42354184  .00012672  00000+0  37492-3 0  9990
2 20775  82.9020 238.0523 0359209 324.3502  33.4190 14.89517874811491
SL-8 R/B                
1 21088U 91006B   26083.50464683  .00000097  00000+0  81736-4 0  9994
2 21088  82.9453 159.0320 0022133 357.4426  13.2077 13.77496469766111
OKEAN-3                 
1 21397U 91039A   26083.37404411  .00002115  00000+0  14740-3 0  9994
2 21397  82.5168 322.6172 0012409 282.1923  77.7913 15.04893264867243
COSMOS 2151             
1 21422U 91042A   26083.49127370  .00002332  00000+0  18441-3 0  9999
2 21422  82.4943  69.3934 0012929  17.8843 342.2833 15.00163254865417
SL-14 R/B               
1 21423U 91042B   26083.41077620  .00000504  00000+0  60654-4 0  9997
2 21423  82.4949 206.3800 0016832 187.8775 172.2177 14.81844037855254
